start=new Date('2022-02-14T00:00:00.000Z').valueOf();
sats=[{"OBJECT_NAME":"STARLINK-1863","APOAPSIS":"548.372","OBJECT_TYPE":"PAYLOAD","MEAN_MOTION_DOT":"-0.00005611","MEAN_MOTION_DDOT":"0.0000000000000","MEAN_ANOMALY":"289.2688","EPHEMERIS_TYPE":"0","ARG_OF_PERICENTER":"70.8476","TLE_LINE2":"2 47150  53.0536 118.8290 0001613  70.8476 289.2688 15.06386368 68130","REF_FRAME":"TEME","REV_AT_EPOCH":"6813","PERIAPSIS":"546.138","DECAY_DATE":null,"RA_OF_ASC_NODE":"118.8290","SEMIMAJOR_AXIS":"6925.390","ELEMENT_SET_NO":"999","INCLINATION":"53.0536","CLASSIFICATION_TYPE":"U","TIME_SYSTEM":"UTC","ECCENTRICITY":"0.00016130","GP_ID":"195894464","EPOCH":"2022-02-13T12:20:27.889152","BSTAR":"-0.00035822000000","MEAN_ELEMENT_THEORY":"SGP4","TLE_LINE1":"1 47150U 20088AE  22044.51421168 -.00005611  00000-0 -35822-3 0  9993","CENTER_NAME":"EARTH","LAUNCH_DATE":"2020-11-25","RCS_SIZE":"LARGE","COUNTRY_CODE":"US","NORAD_CAT_ID":"47150","MEAN_MOTION":"15.06386368","FILE":"3299685","OBJECT_ID":"2020-088AE","SITE":"AFETR","PERIOD":"95.593"},{"REF_FRAME":"TEME","TLE_LINE2":"2 47151  53.0544 128.8394 0001359  63.2763 296.8365 15.06370242 67980","ARG_OF_PERICENTER":"63.2763","EPHEMERIS_TYPE":"0","PERIAPSIS":"546.364","REV_AT_EPOCH":"6798","APOAPSIS":"548.246","OBJECT_NAME":"STARLINK-1864","MEAN_MOTION_DDOT":"0.0000000000000","MEAN_ANOMALY":"296.8365","MEAN_MOTION_DOT":"-0.00005901","OBJECT_TYPE":"PAYLOAD","RCS_SIZE":"LARGE","LAUNCH_DATE":"2020-11-25","CENTER_NAME":"EARTH","TLE_LINE1":"1 47151U 20088AF  22044.51329518 -.00005901  00000-0 -37791-3 0  9999","MEAN_ELEMENT_THEORY":"SGP4","PERIOD":"95.594","SITE":"AFETR","OBJECT_ID":"2020-088AF","FILE":"3299685","COUNTRY_CODE":"US","NORAD_CAT_ID":"47151","MEAN_MOTION":"15.06370242","INCLINATION":"53.0544","SEMIMAJOR_AXIS":"6925.440","ELEMENT_SET_NO":"999","RA_OF_ASC_NODE":"128.8394","DECAY_DATE":null,"BSTAR":"-0.00037791000000","EPOCH":"2022-02-13T12:19:08.703552","GP_ID":"195894215","ECCENTRICITY":"0.00013590","TIME_SYSTEM":"UTC","CLASSIFICATION_TYPE":"U"},{"REF_FRAME":"TEME","ARG_OF_PERICENTER":"97.9173","EPHEMERIS_TYPE":"0","TLE_LINE2":"2 47152  53.0562 128.9104 0001437  97.9173 262.1979 15.06386210 67986","PERIAPSIS":"546.261","REV_AT_EPOCH":"6798","APOAPSIS":"548.251","OBJECT_NAME":"STARLINK-1866","MEAN_MOTION_DDOT":"0.0000000000000","MEAN_ANOMALY":"262.1979","MEAN_MOTION_DOT":"-0.00006019","OBJECT_TYPE":"PAYLOAD","RCS_SIZE":"LARGE","MEAN_ELEMENT_THEORY":"SGP4","TLE_LINE1":"1 47152U 20088AG  22044.49855301 -.00006019  00000-0 -38563-3 0  9990","LAUNCH_DATE":"2020-11-25","CENTER_NAME":"EARTH","SITE":"AFETR","OBJECT_ID":"2020-088AG","PERIOD":"95.593","COUNTRY_CODE":"US","MEAN_MOTION":"15.06386210","NORAD_CAT_ID":"47152","FILE":"3299685","RA_OF_ASC_NODE":"128.9104","SEMIMAJOR_AXIS":"6925.391","ELEMENT_SET_NO":"999","INCLINATION":"53.0562","DECAY_DATE":null,"GP_ID":"195893476","ECCENTRICITY":"0.00014370","BSTAR":"-0.00038563000000","EPOCH":"2022-02-13T11:57:54.980064","TIME_SYSTEM":"UTC","CLASSIFICATION_TYPE":"U"},{"OBJECT_ID":"2020-088AH","SITE":"AFETR","PERIOD":"95.593","NORAD_CAT_ID":"47153","COUNTRY_CODE":"US","MEAN_MOTION":"15.06383402","FILE":"3299787","RCS_SIZE":"LARGE","TLE_LINE1":"1 47153U 20088AH  22044.73858982 -.00004132  00000-0 -25880-3 0  9998","MEAN_ELEMENT_THEORY":"SGP4","LAUNCH_DATE":"2020-11-25","CENTER_NAME":"EARTH","GP_ID":"195900158","ECCENTRICITY":"0.00012740","EPOCH":"2022-02-13T17:43:34.160448","BSTAR":"-0.00025880000000","CLASSIFICATION_TYPE":"U","TIME_SYSTEM":"UTC","ELEMENT_SET_NO":"999","SEMIMAJOR_AXIS":"6925.399","RA_OF_ASC_NODE":"132.8250","INCLINATION":"53.0539","DECAY_DATE":null,"REV_AT_EPOCH":"6820","PERIAPSIS":"546.382","REF_FRAME":"TEME","EPHEMERIS_TYPE":"0","ARG_OF_PERICENTER":"67.7086","TLE_LINE2":"2 47153  53.0539 132.8250 0001274  67.7086 292.4038 15.06383402 68202","MEAN_MOTION_DDOT":"0.0000000000000","MEAN_MOTION_DOT":"-0.00004132","MEAN_ANOMALY":"292.4038","OBJECT_TYPE":"PAYLOAD","APOAPSIS":"548.147","OBJECT_NAME":"STARLINK-1867"},{"INCLINATION":"53.0531","RA_OF_ASC_NODE":"118.7301","SEMIMAJOR_AXIS":"6925.388","ELEMENT_SET_NO":"999","DECAY_DATE":null,"EPOCH":"2022-02-13T12:52:18.940512","BSTAR":"-0.00028503000000","ECCENTRICITY":"0.00015210","GP_ID":"195893965","CLASSIFICATION_TYPE":"U","TIME_SYSTEM":"UTC","RCS_SIZE":"LARGE","CENTER_NAME":"EARTH","LAUNCH_DATE":"2020-11-25","TLE_LINE1":"1 47154U 20088AJ  22044.53633033 -.00004523  00000-0 -28503-3 0  9994","MEAN_ELEMENT_THEORY":"SGP4","PERIOD":"95.593","OBJECT_ID":"2020-088AJ","SITE":"AFETR","FILE":"3299685","COUNTRY_CODE":"US","MEAN_MOTION":"15.06387173","NORAD_CAT_ID":"47154","APOAPSIS":"548.306","OBJECT_NAME":"STARLINK-1868","MEAN_MOTION_DDOT":"0.0000000000000","MEAN_MOTION_DOT":"-0.00004523","MEAN_ANOMALY":"283.2718","OBJECT_TYPE":"PAYLOAD","REF_FRAME":"TEME","TLE_LINE2":"2 47154  53.0531 118.7301 0001521  76.8441 283.2718 15.06387173 68130","EPHEMERIS_TYPE":"0","ARG_OF_PERICENTER":"76.8441","REV_AT_EPOCH":"6813","PERIAPSIS":"546.200"},{"PERIAPSIS":"545.966","REV_AT_EPOCH":"6785","TLE_LINE2":"2 47155  53.0555 138.5633 0001842  52.7656 307.3501 15.06390867 67852","ARG_OF_PERICENTER":"52.7656","EPHEMERIS_TYPE":"0","REF_FRAME":"TEME","OBJECT_TYPE":"PAYLOAD","MEAN_MOTION_DDOT":"0.0000000000000","MEAN_ANOMALY":"307.3501","MEAN_MOTION_DOT":"-0.00003569","OBJECT_NAME":"STARLINK-1869","APOAPSIS":"548.517","FILE":"3299685","MEAN_MOTION":"15.06390867","COUNTRY_CODE":"US","NORAD_CAT_ID":"47155","PERIOD":"95.593","SITE":"AFETR","OBJECT_ID":"2020-088AK","LAUNCH_DATE":"2020-11-25","CENTER_NAME":"EARTH","MEAN_ELEMENT_THEORY":"SGP4","TLE_LINE1":"1 47155U 20088AK  22044.57135424 -.00003569  00000-0 -22086-3 0  9999","RCS_SIZE":"LARGE","TIME_SYSTEM":"UTC","CLASSIFICATION_TYPE":"U","BSTAR":"-0.00022086000000","EPOCH":"2022-02-13T13:42:45.006336","GP_ID":"195894715","ECCENTRICITY":"0.00018420","DECAY_DATE":null,"INCLINATION":"53.0555","RA_OF_ASC_NODE":"138.5633","SEMIMAJOR_AXIS":"6925.377","ELEMENT_SET_NO":"999"},{"TLE_LINE2":"2 47156  53.0543  18.7666 0007763 275.9919  84.0217 15.81124972 69775","ARG_OF_PERICENTER":"275.9919","EPHEMERIS_TYPE":"0","REF_FRAME":"TEME","PERIAPSIS":"322.055","REV_AT_EPOCH":"6977","OBJECT_NAME":"STARLINK-1870","APOAPSIS":"332.466","OBJECT_TYPE":"PAYLOAD","MEAN_MOTION_DOT":"0.00012242","MEAN_MOTION_DDOT":"0.0000000000000","MEAN_ANOMALY":"84.0217","CENTER_NAME":"EARTH","LAUNCH_DATE":"2020-11-25","MEAN_ELEMENT_THEORY":"SGP4","TLE_LINE1":"1 47156U 20088AL  22044.29469064  .00012242  00000-0  64661-4 0  9991","RCS_SIZE":"LARGE","FILE":"3299881","COUNTRY_CODE":"US","MEAN_MOTION":"15.81124972","NORAD_CAT_ID":"47156","PERIOD":"91.074","SITE":"AFETR","OBJECT_ID":"2020-088AL","DECAY_DATE":null,"INCLINATION":"53.0543","SEMIMAJOR_AXIS":"6705.395","ELEMENT_SET_NO":"999","RA_OF_ASC_NODE":"18.7666","TIME_SYSTEM":"UTC","CLASSIFICATION_TYPE":"U","BSTAR":"0.00006466100000","EPOCH":"2022-02-13T07:04:21.271296","GP_ID":"195902424","ECCENTRICITY":"0.00077630"},{"RCS_SIZE":"LARGE","CENTER_NAME":"EARTH","LAUNCH_DATE":"2020-11-25","MEAN_ELEMENT_THEORY":"SGP4","TLE_LINE1":"1 47157U 20088AM  22044.54279876 -.00003837  00000-0 -23897-3 0  9997","PERIOD":"95.593","OBJECT_ID":"2020-088AM","SITE":"AFETR","FILE":"3299685","NORAD_CAT_ID":"47157","COUNTRY_CODE":"US","MEAN_MOTION":"15.06378786","INCLINATION":"53.0532","SEMIMAJOR_AXIS":"6925.414","ELEMENT_SET_NO":"999","RA_OF_ASC_NODE":"128.6936","DECAY_DATE":null,"EPOCH":"2022-02-13T13:01:37.812864","BSTAR":"-0.00023897000000","ECCENTRICITY":"0.00014730","GP_ID":"195893227","CLASSIFICATION_TYPE":"U","TIME_SYSTEM":"UTC","REF_FRAME":"TEME","TLE_LINE2":"2 47157  53.0532 128.6936 0001473  61.5279 298.5858 15.06378786 67991","EPHEMERIS_TYPE":"0","ARG_OF_PERICENTER":"61.5279","REV_AT_EPOCH":"6799","PERIAPSIS":"546.258","APOAPSIS":"548.299","OBJECT_NAME":"STARLINK-1871","MEAN_MOTION_DDOT":"0.0000000000000","MEAN_ANOMALY":"298.5858","MEAN_MOTION_DOT":"-0.00003837","OBJECT_TYPE":"PAYLOAD"},{"OBJECT_NAME":"STARLINK-1873","APOAPSIS":"548.292","OBJECT_TYPE":"PAYLOAD","MEAN_ANOMALY":"289.9895","MEAN_MOTION_DDOT":"0.0000000000000","MEAN_MOTION_DOT":"-0.00006286","EPHEMERIS_TYPE":"0","ARG_OF_PERICENTER":"70.1255","TLE_LINE2":"2 47158  53.0553 118.8868 0001501  70.1255 289.9895 15.06387314 68120","REF_FRAME":"TEME","REV_AT_EPOCH":"6812","PERIAPSIS":"546.213","DECAY_DATE":null,"SEMIMAJOR_AXIS":"6925.387","ELEMENT_SET_NO":"999","RA_OF_ASC_NODE":"118.8868","INCLINATION":"53.0553","CLASSIFICATION_TYPE":"U","TIME_SYSTEM":"UTC","GP_ID":"195894465","ECCENTRICITY":"0.00015010","EPOCH":"2022-02-13T11:59:14.258112","BSTAR":"-0.00040363000000","MEAN_ELEMENT_THEORY":"SGP4","TLE_LINE1":"1 47158U 20088AN  22044.49947058 -.00006286  00000-0 -40363-3 0  9994","LAUNCH_DATE":"2020-11-25","CENTER_NAME":"EARTH","RCS_SIZE":"LARGE","COUNTRY_CODE":"US","NORAD_CAT_ID":"47158","MEAN_MOTION":"15.06387314","FILE":"3299685","OBJECT_ID":"2020-088AN","SITE":"AFETR","PERIOD":"95.593"},{"LAUNCH_DATE":"2020-11-25","CENTER_NAME":"EARTH","TLE_LINE1":"1 47159U 20088AP  22044.44749175  .00090508  00000-0  73000-3 0  9992","MEAN_ELEMENT_THEORY":"SGP4","RCS_SIZE":"LARGE","FILE":"3299685","COUNTRY_CODE":"US","MEAN_MOTION":"15.70151134","NORAD_CAT_ID":"47159","PERIOD":"91.711","OBJECT_ID":"2020-088AP","SITE":"AFETR","DECAY_DATE":null,"INCLINATION":"53.0542","SEMIMAJOR_AXIS":"6736.602","ELEMENT_SET_NO":"999","RA_OF_ASC_NODE":"101.0203","CLASSIFICATION_TYPE":"U","TIME_SYSTEM":"UTC","EPOCH":"2022-02-13T10:44:23.287200","BSTAR":"0.00073000000000","ECCENTRICITY":"0.00040990","GP_ID":"195894216","TLE_LINE2":"2 47159  53.0542 101.0203 0004099 313.6827  46.3849 15.70151134 68372","EPHEMERIS_TYPE":"0","ARG_OF_PERICENTER":"313.6827","REF_FRAME":"TEME","PERIAPSIS":"355.705","REV_AT_EPOCH":"6837","OBJECT_NAME":"STARLINK-1874","APOAPSIS":"361.228","OBJECT_TYPE":"PAYLOAD","MEAN_ANOMALY":"46.3849","MEAN_MOTION_DDOT":"0.0000000000000","MEAN_MOTION_DOT":"0.00090508"}];
